{
  "type": "FeatureCollection",
  "bbox": [
    120.56207368000003,
    14.056573745000037,
    121.07749883300005,
    14.500226307000048
  ],
  "provenance": {
    "sourceUrl": "https://github.com/wmgeolab/geoBoundaries/raw/41af8f1/releaseData/gbOpen/PHL/ADM2/geoBoundaries-PHL-ADM2_simplified.geojson",
    "sourceSha256": "fa77b9f17db2e419acaae714a935f7812be4409e2983675d34020e8426a3e189",
    "boundaryID": "PHL-ADM2-2640588",
    "yearRepresented": "2020",
    "boundarySource": "National Mapping and Resource Information Authority (NAMRIA), Philippines Statistics Authority (PSA), OCHA Philippines",
    "originalSourceLicense": "Creative Commons Attribution 3.0 Intergovernmental Organisations (CC BY 3.0 IGO)",
    "geoBoundariesReleaseTerms": "gbOpen; attribution required",
    "coordinateConvention": "GeoJSON WGS84 longitude, latitude (RFC7946)",
    "geometryProcessing": "Cavite feature extracted unchanged from the provider's simplified layer",
    "purpose": "Dated approximate administrative discovery outline",
    "legalMunicipalWaterBoundary": false,
    "preciseOccurrenceLocalityValidation": false,
    "navigationUse": false
  },
  "features": [
    {
      "type": "Feature",
      "geometry": {
        "type": "MultiPolygon",
        "coordinates": [
          [
            [
              [
                120.61401933800005,
                14.272452971000064
              ],
              [
                120.61300257200003,
                14.271892684000022
              ],
              [
                120.61417683200011,
                14.267505892000031
              ],
              [
                120.61249690600005,
                14.266764526000031
              ],
              [
                120.61552184100003,
                14.26388585500007
              ],
              [
                120.61401933800005,
                14.272452971000064
              ]
            ]
          ],
          [
            [
              [
                120.71481306600003,
                14.296729048000032
              ],
              [
                120.71060934000002,
                14.29352975300003
              ],
              [
                120.71299547800004,
                14.288014443000066
              ],
              [
                120.71481306600003,
                14.296729048000032
              ]
            ]
          ],
          [
            [
              [
                120.6234744200001,
                14.367355404000023
              ],
              [
                120.62251820800009,
                14.370245410000052
              ],
              [
                120.62007108500006,
                14.36732758900007
              ],
              [
                120.61216342300008,
                14.365468085000032
              ],
              [
                120.61877760700008,
                14.364594301000068
              ],
              [
                120.6234744200001,
                14.367355404000023
              ]
            ]
          ],
          [
            [
              [
                120.60839100100009,
                14.393779098000039
              ],
              [
                120.60419664300002,
                14.393344484000067
              ],
              [
                120.60211547100005,
                14.391208934000076
              ],
              [
                120.59591244400008,
                14.392516962000059
              ],
              [
                120.59451860700005,
                14.390802079000025
              ],
              [
                120.59063786600007,
                14.391538853000043
              ],
              [
                120.58595438900011,
                14.387564849000057
              ],
              [
                120.5794863320001,
                14.392734724000036
              ],
              [
                120.57323388200007,
                14.39271984000004
              ],
              [
                120.57010811600003,
                14.390217120000045
              ],
              [
                120.56363120000003,
                14.388472838000041
              ],
              [
                120.56207368000003,
                14.384354486000063
              ],
              [
                120.566812432,
                14.376143441000067
              ],
              [
                120.56961632200012,
                14.375621357000057
              ],
              [
                120.57009158400001,
                14.374061496000024
              ],
              [
                120.57735171400009,
                14.374027769000065
              ],
              [
                120.579754234,
                14.372401714000034
              ],
              [
                120.58393967300003,
                14.375449610000032
              ],
              [
                120.5852770890001,
                14.383133041000065
              ],
              [
                120.58879861100002,
                14.384634258000062
              ],
              [
                120.58926738000002,
                14.383353056000033
              ],
              [
                120.5931371580001,
                14.387530225000035
              ],
              [
                120.60042322600009,
                14.386449695000067
              ],
              [
                120.6015327,
                14.388209175000043
              ],
              [
                120.60436463300005,
                14.387871855000071
              ],
              [
                120.60704183100006,
                14.388862626000048
              ],
              [
                120.60779575400011,
                14.391028745000028
              ],
              [
                120.6104893270001,
                14.391139516000067
              ],
              [
                120.61530138300009,
                14.390106677000063
              ],
              [
                120.620436949,
                14.385673953000037
              ],
              [
                120.61554296700001,
                14.390932495000072
              ],
              [
                120.60839100100009,
                14.393779098000039
              ]
            ]
          ],
          [
            [
              [
                121.03586636200009,
                14.151780380000048
              ],
              [
                121.02636499300002,
                14.157402716000036
              ],
              [
                121.0152808140001,
                14.155680318000066
              ],
              [
                121.01369984200005,
                14.163004601000068
              ],
              [
                121.02409623900007,
                14.185556061000057
              ],
              [
                121.03021017900005,
                14.193390330000057
              ],
              [
                121.02983009200011,
                14.197172809000051
              ],
              [
                121.03355182200005,
                14.205545079000046
              ],
              [
                121.03844820300003,
                14.206948054000065
              ],
              [
                121.03898133300004,
                14.209319080000057
              ],
              [
                121.03763447800009,
                14.21055369800007
              ],
              [
                121.04223623400003,
                14.214341729000068
              ],
              [
                121.04438278500004,
                14.213976956000067
              ],
              [
                121.0475394770001,
                14.217175737000048
              ],
              [
                121.05282869100006,
                14.21626380400005
              ],
              [
                121.04953824800009,
                14.22408520700003
              ],
              [
                121.04637207600001,
                14.227756415000044
              ],
              [
                121.05161084300005,
                14.234862286000066
              ],
              [
                121.05208892000007,
                14.243299967000041
              ],
              [
                121.05084335900005,
                14.244631429000037
              ],
              [
                121.05400324800007,
                14.249165341000037
              ],
              [
                121.05425063200005,
                14.256435864000025
              ],
              [
                121.05254362000005,
                14.253968674000077
              ],
              [
                121.04402381400007,
                14.253342324000073
              ],
              [
                121.04079555100009,
                14.249708271000031
              ],
              [
                121.03531840500011,
                14.248877594000021
              ],
              [
                121.03314673000011,
                14.25147073200003
              ],
              [
                121.03702932400006,
                14.25298762600005
              ],
              [
                121.03609965100009,
                14.254634611000029
              ],
              [
                121.03748000300004,
                14.257928581000044
              ],
              [
                121.04105583000012,
                14.262308116000042
              ],
              [
                121.03930539200007,
                14.26541209100003
              ],
              [
                121.0391374720001,
                14.271101015000056
              ],
              [
                121.04078197800004,
                14.274356814000043
              ],
              [
                121.04490824400011,
                14.276505026000052
              ],
              [
                121.04604261300005,
                14.281907457000045
              ],
              [
                121.04859370500003,
                14.28374270200004
              ],
              [
                121.04737712200006,
                14.287869675000024
              ],
              [
                121.04853321200005,
                14.292897324000023
              ],
              [
                121.05083195000009,
                14.29535065500005
              ],
              [
                121.05489809200003,
                14.294975476000047
              ],
              [
                121.0556755,
                14.298036138000043
              ],
              [
                121.058846345,
                14.299848050000037
              ],
              [
                121.05995430500002,
                14.304481891000023
              ],
              [
                121.06233348500007,
                14.306740001000037
              ],
              [
                121.06180647400004,
                14.308850789000076
              ],
              [
                121.06323379500009,
                14.309899320000056
              ],
              [
                121.06204527600005,
                14.31112352200006
              ],
              [
                121.06675954700006,
                14.313042447000043
              ],
              [
                121.06633651900006,
                14.314850685000067
              ],
              [
                121.070245268,
                14.32344086200004
              ],
              [
                121.07554309300008,
                14.325202794000063
              ],
              [
                121.07749883300005,
                14.32786512000007
              ],
              [
                121.06805299000007,
                14.329186901000071
              ],
              [
                121.05953492800006,
                14.322235353000053
              ],
              [
                121.05626084800008,
                14.325271138000062
              ],
              [
                121.0471504090001,
                14.328120326000032
              ],
              [
                121.04169769500004,
                14.32630576400004
              ],
              [
                121.03917911700012,
                14.32357595700006
              ],
              [
                121.04003619200012,
                14.332668986000044
              ],
              [
                121.0322835610001,
                14.33462025700004
              ],
              [
                121.02349774200002,
                14.327965981000034
              ],
              [
                121.022078727,
                14.325381561000029
              ],
              [
                121.01515876200006,
                14.324119543000052
              ],
              [
                121.0103643010001,
                14.320991670000069
              ],
              [
                121.00799185500011,
                14.317417035000062
              ],
              [
                121.00529610100011,
                14.318790294000053
              ],
              [
                121.00727737200009,
                14.320966914000053
              ],
              [
                121.0067533460001,
                14.332937467000022
              ],
              [
                121.00898090600003,
                14.341994256000078
              ],
              [
                121.01155749200007,
                14.347036718000027
              ],
              [
                121.01623891600002,
                14.351821071000074
              ],
              [
                121.00689103200011,
                14.353943146000063
              ],
              [
                121.00714793700001,
                14.369917457000042
              ],
              [
                121.01013711700011,
                14.372814005000066
              ],
              [
                121.0116282570001,
                14.38012765700006
              ],
              [
                121.00778367700002,
                14.383800736000069
              ],
              [
                121.00663206200011,
                14.387328010000033
              ],
              [
                121.00785481900004,
                14.390869810000027
              ],
              [
                121.00173473400002,
                14.394243259000064
              ],
              [
                121.00295576400003,
                14.39735246600003
              ],
              [
                121.00210210600005,
                14.399287217000051
              ],
              [
                120.9983886220001,
                14.40536904000004
              ],
              [
                120.99530676100005,
                14.405734990000042
              ],
              [
                120.99497700500001,
                14.410796160000075
              ],
              [
                120.99033180200001,
                14.416203306000057
              ],
              [
                120.98986968300005,
                14.422015804000068
              ],
              [
                120.98678255100003,
                14.422670805000052
              ],
              [
                120.98709123300011,
                14.42610307700005
              ],
              [
                120.98566454800005,
                14.425988149000034
              ],
              [
                120.98403624500008,
                14.433506927000053
              ],
              [
                120.97915620900005,
                14.435105431000068
              ],
              [
                120.9739434820001,
                14.439224067000055
              ],
              [
                120.9698520710001,
                14.446804095000061
              ],
              [
                120.97045243900004,
                14.454728424000052
              ],
              [
                120.96595096500005,
                14.465177050000023
              ],
              [
                120.96957153700009,
                14.468387839000059
              ],
              [
                120.96751874800009,
                14.469896131000041
              ],
              [
                120.9681106810001,
                14.471218677000024
              ],
              [
                120.97158240100009,
                14.471621217000063
              ],
              [
                120.9699304500001,
                14.475450371000022
              ],
              [
                120.965027426,
                14.472567162000075
              ],
              [
                120.96181458300009,
                14.47281081400007
              ],
              [
                120.96141504500008,
                14.47100757000004
              ],
              [
                120.95674050500008,
                14.469163460000061
              ],
              [
                120.92700375700008,
                14.460790605000057
              ],
              [
                120.9246938550001,
                14.46144330800007
              ],
              [
                120.924081225,
                14.464501857000073
              ],
              [
                120.92335640300007,
                14.463453407000031
              ],
              [
                120.91940754600012,
                14.467669730000068
              ],
              [
                120.91656655700001,
                14.464228821000063
              ],
              [
                120.92295259500008,
                14.460148752000066
              ],
              [
                120.92097086700005,
                14.459767601000067
              ],
              [
                120.91819506200011,
                14.46189683700004
              ],
              [
                120.91810121000003,
                14.456152908000035
              ],
              [
                120.91658658600011,
                14.455783082000039
              ],
              [
                120.91565943500007,
                14.450513012000044
              ],
              [
                120.91383249800003,
                14.450677213000063
              ],
              [
                120.91342875100008,
                14.449426447000064
              ],
              [
                120.91253584200001,
                14.45570993900003
              ],
              [
                120.91118747400003,
                14.455708869000034
              ],
              [
                120.91079597800001,
                14.453433117000031
              ],
              [
                120.91060104700011,
                14.45603998100006
              ],
              [
                120.90917862300012,
                14.454820663000078
              ],
              [
                120.90908780900008,
                14.457477179000023
              ],
              [
                120.90659204600001,
                14.45620189500005
              ],
              [
                120.90559330000008,
                14.457783328000062
              ],
              [
                120.90572409300012,
                14.454046714000071
              ],
              [
                120.90499514200008,
                14.456643006000036
              ],
              [
                120.902881277,
                14.456379509000044
              ],
              [
                120.9020315250001,
                14.448567964000063
              ],
              [
                120.90110452400006,
                14.450790399000027
              ],
              [
                120.9010684000001,
                14.448563620000073
              ],
              [
                120.89922802600006,
                14.450309189000052
              ],
              [
                120.90101920900008,
                14.451936774000046
              ],
              [
                120.90042566700004,
                14.457418504000032
              ],
              [
                120.90011022800002,
                14.455160711000076
              ],
              [
                120.8985437130001,
                14.454982788000052
              ],
              [
                120.89875959100004,
                14.457398042000023
              ],
              [
                120.8984952720001,
                14.455833428000062
              ],
              [
                120.89821539800005,
                14.457358250000027
              ],
              [
                120.89492696800005,
                14.455591222000066
              ],
              [
                120.8947371590001,
                14.449848124000027
              ],
              [
                120.8896082220001,
                14.450550798000052
              ],
              [
                120.88873420900006,
                14.45330122200005
              ],
              [
                120.89169478600002,
                14.452367540000068
              ],
              [
                120.88865400100008,
                14.45625745700005
              ],
              [
                120.88698739600011,
                14.455874710000046
              ],
              [
                120.88856883400001,
                14.457133850000048
              ],
              [
                120.88744552100002,
                14.45920824600006
              ],
              [
                120.88583825300009,
                14.458523790000072
              ],
              [
                120.88493080700005,
                14.46005587600007
              ],
              [
                120.88657191900006,
                14.461281338000049
              ],
              [
                120.8865072110001,
                14.463416615000028
              ],
              [
                120.88820309900007,
                14.46361842300007
              ],
              [
                120.88702573600006,
                14.465641273000074
              ],
              [
                120.89199383900007,
                14.468008209000061
              ],
              [
                120.89496843500001,
                14.472815517000072
              ],
              [
                120.89671261700005,
                14.473024924000072
              ],
              [
                120.89703915400003,
                14.475310687000047
              ],
              [
                120.90394408700001,
                14.47653609400004
              ],
              [
                120.90420139700007,
                14.480052938000028
              ],
              [
                120.90568976600002,
                14.48106242700004
              ],
              [
                120.916831408,
                14.480701329000055
              ],
              [
                120.917478232,
                14.479155225000056
              ],
              [
                120.91792304900002,
                14.481132409000054
              ],
              [
                120.91865276400006,
                14.47934835500007
              ],
              [
                120.9196258290001,
                14.479732125000055
              ],
              [
                120.91896379500008,
                14.481815311000048
              ],
              [
                120.92098839500011,
                14.48079068900006
              ],
              [
                120.91711700500002,
                14.484270105000064
              ],
              [
                120.91711011900009,
                14.483306397000035
              ],
              [
                120.9135150080001,
                14.484404434000055
              ],
              [
                120.90928586100006,
                14.483405872000048
              ],
              [
                120.90918109000006,
                14.484615533000067
              ],
              [
                120.9084565600001,
                14.483211453000024
              ],
              [
                120.90312482200011,
                14.484396041000025
              ],
              [
                120.90332959700004,
                14.486850278000077
              ],
              [
                120.90803452600005,
                14.493076221000024
              ],
              [
                120.9149546210001,
                14.49574804100007
              ],
              [
                120.91902949200005,
                14.495794513000021
              ],
              [
                120.919393377,
                14.49760715900004
              ],
              [
                120.91775957800007,
                14.49901669600007
              ],
              [
                120.91198156500002,
                14.500226307000048
              ],
              [
                120.90752002400006,
                14.498964633000071
              ],
              [
                120.89353599100002,
                14.491648287000032
              ],
              [
                120.88461383100002,
                14.467561788000069
              ],
              [
                120.8797515980001,
                14.461402428000042
              ],
              [
                120.87149791400009,
                14.430924067000035
              ],
              [
                120.8687135880001,
                14.429910454000037
              ],
              [
                120.8692645220001,
                14.430665559000033
              ],
              [
                120.86084419500003,
                14.422848492000071
              ],
              [
                120.85175437200007,
                14.422470927000063
              ],
              [
                120.84685431700007,
                14.416748813000027
              ],
              [
                120.84607402800009,
                14.417528511000057
              ],
              [
                120.84697147200006,
                14.416538380000077
              ],
              [
                120.84582741000008,
                14.409880274000045
              ],
              [
                120.8440422760001,
                14.41062990000006
              ],
              [
                120.836917362,
                14.395685
              ],
              [
                120.82715205600005,
                14.389073583000027
              ],
              [
                120.8141370730001,
                14.375633379000021
              ],
              [
                120.80828952000002,
                14.372088145000077
              ],
              [
                120.80371314900003,
                14.372031787000026
              ],
              [
                120.79503461900003,
                14.363342026000055
              ],
              [
                120.79113182300011,
                14.361325531000034
              ],
              [
                120.78672353500008,
                14.35507414400007
              ],
              [
                120.7801501460001,
                14.349343517000023
              ],
              [
                120.78163513100003,
                14.347068661000037
              ],
              [
                120.7800403440001,
                14.348132664000047
              ],
              [
                120.76864946,
                14.331668028000024
              ],
              [
                120.75963784300006,
                14.330359840000028
              ],
              [
                120.75635489100011,
                14.326598184000034
              ],
              [
                120.75844266800004,
                14.331084158000067
              ],
              [
                120.75149342400005,
                14.321737087000031
              ],
              [
                120.74303393100001,
                14.316412427000046
              ],
              [
                120.73855992200004,
                14.315310757000077
              ],
              [
                120.73221623000006,
                14.316260098000043
              ],
              [
                120.72451336000006,
                14.303780240000037
              ],
              [
                120.71652427000004,
                14.295347794000065
              ],
              [
                120.71680836300004,
                14.292171239000027
              ],
              [
                120.71466510300002,
                14.286536253000065
              ],
              [
                120.7121096840001,
                14.286540135000052
              ],
              [
                120.71015800500004,
                14.29169965400007
              ],
              [
                120.70376997300002,
                14.284771612000043
              ],
              [
                120.69809755900008,
                14.284856307000041
              ],
              [
                120.69281975800004,
                14.28119410000005
              ],
              [
                120.69076947500002,
                14.281669133000037
              ],
              [
                120.68908200700002,
                14.284827802000052
              ],
              [
                120.68753540000012,
                14.283459401000073
              ],
              [
                120.68576440600009,
                14.284216976000039
              ],
              [
                120.6826652210001,
                14.280545606000032
              ],
              [
                120.68159470500007,
                14.282789105000063
              ],
              [
                120.68153269900006,
                14.280251557000042
              ],
              [
                120.67857403300002,
                14.27980049200005
              ],
              [
                120.67307355000003,
                14.283130800000038
              ],
              [
                120.67234476300007,
                14.285204367000063
              ],
              [
                120.6697861450001,
                14.285710642000026
              ],
              [
                120.66824970700009,
                14.280628789000048
              ],
              [
                120.66466199900003,
                14.27996094200006
              ],
              [
                120.66226495600006,
                14.28505797300005
              ],
              [
                120.65783194000005,
                14.277968091000048
              ],
              [
                120.65530004400011,
                14.278968746000032
              ],
              [
                120.65658579400008,
                14.282729324000059
              ],
              [
                120.6554936770001,
                14.285755082000037
              ],
              [
                120.65060829300012,
                14.281216912000048
              ],
              [
                120.65009650600007,
                14.277038637000032
              ],
              [
                120.64683162200004,
                14.276734671000042
              ],
              [
                120.6492711630001,
                14.276643402000047
              ],
              [
                120.64930842600006,
                14.273798374000023
              ],
              [
                120.64566024300007,
                14.273295641000061
              ],
              [
                120.6448303740001,
                14.275195953000036
              ],
              [
                120.646272285,
                14.275747931000069
              ],
              [
                120.6442448250001,
                14.275474477000046
              ],
              [
                120.64319319800006,
                14.27896617500005
              ],
              [
                120.63816620600005,
                14.273200422000059
              ],
              [
                120.63801940600001,
                14.268139027000075
              ],
              [
                120.63524047900012,
                14.267497368000022
              ],
              [
                120.63458764400002,
                14.265468442000042
              ],
              [
                120.63262224700009,
                14.265833996000026
              ],
              [
                120.63061396900002,
                14.272212275000072
              ],
              [
                120.62972935000005,
                14.267875317000062
              ],
              [
                120.62545046700006,
                14.268611197000041
              ],
              [
                120.62541161500008,
                14.266474810000034
              ],
              [
                120.62280675800002,
                14.266748278000023
              ],
              [
                120.62372236400006,
                14.264164851000032
              ],
              [
                120.62211366300005,
                14.261253242000066
              ],
              [
                120.62346852200005,
                14.259335952000072
              ],
              [
                120.6257355250001,
                14.259359104000055
              ],
              [
                120.6264380020001,
                14.255895017000057
              ],
              [
                120.62390117500001,
                14.25402263500007
              ],
              [
                120.62288109100007,
                14.25562993400007
              ],
              [
                120.6219759600001,
                14.25427628400007
              ],
              [
                120.62029158300004,
                14.254641219000064
              ],
              [
                120.62238744500007,
                14.253549501000066
              ],
              [
                120.621182341,
                14.252565281000045
              ],
              [
                120.62437900300006,
                14.245819736000044
              ],
              [
                120.62299401400003,
                14.244098191000035
              ],
              [
                120.62449118800009,
                14.236521568000057
              ],
              [
                120.62313917800009,
                14.233946673000048
              ],
              [
                120.62581141400005,
                14.226380861000052
              ],
              [
                120.62257931900001,
                14.222315689000027
              ],
              [
                120.61834722200001,
                14.220246020000047
              ],
              [
                120.61888377800005,
                14.218541259000062
              ],
              [
                120.62115079700004,
                14.218518589000041
              ],
              [
                120.62210105600002,
                14.215106724000066
              ],
              [
                120.63090464800007,
                14.215378767000061
              ],
              [
                120.64127248300008,
                14.211184781000043
              ],
              [
                120.64555377700003,
                14.211928594000028
              ],
              [
                120.64732706200004,
                14.21502638800007
              ],
              [
                120.64901149200011,
                14.213760666000042
              ],
              [
                120.65117905600005,
                14.214442581000071
              ],
              [
                120.64924910500008,
                14.203513937000025
              ],
              [
                120.65420380800003,
                14.200107724000077
              ],
              [
                120.65691414700007,
                14.193512744000031
              ],
              [
                120.66118118300005,
                14.189946257000031
              ],
              [
                120.65840315100002,
                14.185721820000026
              ],
              [
                120.66120336800009,
                14.186649706000026
              ],
              [
                120.66621099600002,
                14.18570821700007
              ],
              [
                120.66873527700011,
                14.187059049000027
              ],
              [
                120.67056367500004,
                14.186172139000064
              ],
              [
                120.67160067600003,
                14.18783680000007
              ],
              [
                120.67516195900009,
                14.182324317000052
              ],
              [
                120.68879729200012,
                14.180104799000048
              ],
              [
                120.68905019200008,
                14.176307337000026
              ],
              [
                120.69046880700012,
                14.175236460000065
              ],
              [
                120.6947720710001,
                14.17361631500006
              ],
              [
                120.7038167290001,
                14.175249303000044
              ],
              [
                120.70735536300003,
                14.173088780000057
              ],
              [
                120.70766053700004,
                14.171308448000048
              ],
              [
                120.6923513160001,
                14.163429119000057
              ],
              [
                120.6919692570001,
                14.160500003000038
              ],
              [
                120.69417606800005,
                14.159554782000043
              ],
              [
                120.69353156900002,
                14.156514067000046
              ],
              [
                120.69731842400006,
                14.150636792000057
              ],
              [
                120.6967385150001,
                14.14840306800005
              ],
              [
                120.69978303900007,
                14.147388227000022
              ],
              [
                120.70129724600008,
                14.144440355000029
              ],
              [
                120.69888632700008,
                14.141342136000048
              ],
              [
                120.69822050500011,
                14.136949860000072
              ],
              [
                120.70060639500002,
                14.137319920000039
              ],
              [
                120.70174473000009,
                14.136022960000048
              ],
              [
                120.70259522700007,
                14.13735945600007
              ],
              [
                120.70709071100009,
                14.137671883000053
              ],
              [
                120.70865284800004,
                14.13480796500005
              ],
              [
                120.70684771100002,
                14.132195725000031
              ],
              [
                120.70887849000007,
                14.132143653000071
              ],
              [
                120.71372751500007,
                14.128076818000068
              ],
              [
                120.71531312800005,
                14.128523672000028
              ],
              [
                120.71593295800005,
                14.126534449000076
              ],
              [
                120.72609529200008,
                14.13355438800005
              ],
              [
                120.7294194100001,
                14.140384557000061
              ],
              [
                120.73468289900006,
                14.138258800000074
              ],
              [
                120.73766362200001,
                14.133390720000023
              ],
              [
                120.739160491,
                14.134366939000074
              ],
              [
                120.7411129300001,
                14.133481834000065
              ],
              [
                120.7424145550001,
                14.135239028000058
              ],
              [
                120.75034145600011,
                14.137634020000064
              ],
              [
                120.7513827570001,
                14.136215248000042
              ],
              [
                120.75462380500005,
                14.137074321000057
              ],
              [
                120.75999951900008,
                14.13504378500005
              ],
              [
                120.76566159100003,
                14.135577451000074
              ],
              [
                120.76888523800005,
                14.133428447000028
              ],
              [
                120.76968880100003,
                14.126114803000064
              ],
              [
                120.76768094300007,
                14.117736821000051
              ],
              [
                120.7968772590001,
                14.103118018000032
              ],
              [
                120.79938249600002,
                14.105224028000066
              ],
              [
                120.80208450500004,
                14.10530428900006
              ],
              [
                120.8160301260001,
                14.101803435000022
              ],
              [
                120.81683667200002,
                14.102638167000066
              ],
              [
                120.82207340100001,
                14.097762215000046
              ],
              [
                120.8267634990001,
                14.096231647000025
              ],
              [
                120.83629406800003,
                14.089280318000021
              ],
              [
                120.83929156600004,
                14.088780735000057
              ],
              [
                120.84179780800002,
                14.085874827000055
              ],
              [
                120.84064876700006,
                14.082311134000065
              ],
              [
                120.84496460900004,
                14.076248139000029
              ],
              [
                120.84298026800002,
                14.05675646900005
              ],
              [
                120.846773675,
                14.056573745000037
              ],
              [
                120.84895781700004,
                14.063459012000067
              ],
              [
                120.8545119690001,
                14.066589986000054
              ],
              [
                120.854688269,
                14.068178509000063
              ],
              [
                120.85750998600008,
                14.069445402000042
              ],
              [
                120.86241478200009,
                14.07542182900005
              ],
              [
                120.86919557200008,
                14.077406169000028
              ],
              [
                120.87804649400005,
                14.083808497000064
              ],
              [
                120.89272050800002,
                14.087613034000071
              ],
              [
                120.89766449500007,
                14.07912759100003
              ],
              [
                120.90250537600002,
                14.07679061400006
              ],
              [
                120.91904568400003,
                14.083255956000073
              ],
              [
                120.93759739600011,
                14.085943367000027
              ],
              [
                120.94644609600005,
                14.093322387000057
              ],
              [
                120.951283794,
                14.091332195000064
              ],
              [
                120.96527637500003,
                14.097945756000058
              ],
              [
                120.97143969500007,
                14.097899962000042
              ],
              [
                120.9731967990001,
                14.107712708000065
              ],
              [
                120.97608416500009,
                14.114741124000034
              ],
              [
                120.98037532400008,
                14.12008944300004
              ],
              [
                121.00714505300004,
                14.121492624000041
              ],
              [
                121.00830249300009,
                14.123337819000028
              ],
              [
                121.0099296190001,
                14.122935231000042
              ],
              [
                121.01325097000006,
                14.127112081000064
              ],
              [
                121.02632882300009,
                14.134585856000058
              ],
              [
                121.03586636200009,
                14.151780380000048
              ]
            ]
          ]
        ]
      },
      "properties": {
        "shapeName": "Cavite",
        "shapeISO": "",
        "shapeID": "2640588B43067672764099",
        "shapeGroup": "PHL",
        "shapeType": "ADM2"
      }
    }
  ]
}
